{
"type": "FeatureCollection",
"name": "last",
"crs": { "type": "name", "properties": { "name": "urn:ogc:def:crs:OGC:1.3:CRS84" } },
"features": [
{ "type": "Feature", "properties": { "Повна адреса": "Донецька  Білицьке Миру 14", "Latitude": 48.4066275, "Longitude": 37.175099, "COUNTA з Повна адреса": 4 }, "geometry": { "type": "Polygon", "coordinates": [ [ [ 37.1747816, 48.4067122 ], [ 37.1748138, 48.4065722 ], [ 37.1750972, 48.4066009 ], [ 37.1751433, 48.4064003 ], [ 37.1753741, 48.4064237 ], [ 37.1752958, 48.4067643 ], [ 37.1747816, 48.4067122 ] ] ] } },
{ "type": "Feature", "properties": { "Повна адреса": "Донецька  Білицьке Харківська 29", "Latitude": 48.402929201552695, "Longitude": 37.188879051699999, "COUNTA з Повна адреса": 6 }, "geometry": { "type": "Polygon", "coordinates": [ [ [ 37.1889867, 48.4030295 ], [ 37.1887599, 48.4030103 ], [ 37.1888861, 48.4023562 ], [ 37.1891129, 48.4023755 ], [ 37.1889867, 48.4030295 ] ] ] } },
{ "type": "Feature", "properties": { "Повна адреса": "Донецька  Білицьке Миру 13", "Latitude": 48.406962467183781, "Longitude": 37.1749053781, "COUNTA з Повна адреса": 3 }, "geometry": { "type": "Polygon", "coordinates": [ [ [ 37.1747033, 48.4070222 ], [ 37.1749845, 48.4070489 ], [ 37.174941, 48.4072511 ], [ 37.1752088, 48.4072765 ], [ 37.1752849, 48.4069227 ], [ 37.1747359, 48.4068707 ], [ 37.1747033, 48.4070222 ] ] ] } },
{ "type": "Feature", "properties": { "Повна адреса": "Донецька  Білицьке Харківська 35", "Latitude": 48.402408999961622, "Longitude": 37.189791138899999, "COUNTA з Повна адреса": 7 }, "geometry": { "type": "Polygon", "coordinates": [ [ [ 37.1896377, 48.4023133 ], [ 37.1896021, 48.4024535 ], [ 37.1909164, 48.4026005 ], [ 37.190952, 48.4024603 ], [ 37.1896377, 48.4023133 ] ] ] } },
{ "type": "Feature", "properties": { "Повна адреса": "Донецька  Білицьке Миру 16", "Latitude": 48.4066131, "Longitude": 37.1757465, "COUNTA з Повна адреса": 1 }, "geometry": { "type": "Polygon", "coordinates": [ [ [ 37.175546, 48.4067036 ], [ 37.1756121, 48.4064239 ], [ 37.1757851, 48.4064419 ], [ 37.1757456, 48.4066089 ], [ 37.1759966, 48.4066351 ], [ 37.1759699, 48.4067477 ], [ 37.175546, 48.4067036 ] ] ] } },
{ "type": "Feature", "properties": { "Повна адреса": "Донецька  Білицьке Харківська 31", "Latitude": 48.402790822720007, "Longitude": 37.189645457600001, "COUNTA з Повна адреса": 8 }, "geometry": { "type": "Polygon", "coordinates": [ [ [ 37.1895232, 48.4026856 ], [ 37.1894901, 48.4028116 ], [ 37.1908102, 48.4029645 ], [ 37.1908433, 48.4028386 ], [ 37.1895232, 48.4026856 ] ] ] } },
{ "type": "Feature", "properties": { "Повна адреса": "Донецька  Білицьке Миру 18", "Latitude": 48.4067149, "Longitude": 37.1763301, "COUNTA з Повна адреса": 4 }, "geometry": { "type": "Polygon", "coordinates": [ [ [ 37.1761186, 48.406765 ], [ 37.1761523, 48.4066245 ], [ 37.1766532, 48.4066773 ], [ 37.1766196, 48.4068179 ], [ 37.1761186, 48.406765 ] ] ] } },
{ "type": "Feature", "properties": { "Повна адреса": "Донецька  Білицьке Миру 17", "Latitude": 48.4073104, "Longitude": 37.1761135, "COUNTA з Повна адреса": 1 }, "geometry": { "type": "Polygon", "coordinates": [ [ [ 37.1760104, 48.4074509 ], [ 37.1760585, 48.4072552 ], [ 37.1759865, 48.4072473 ], [ 37.1759999, 48.407193 ], [ 37.1760204, 48.4071098 ], [ 37.1763128, 48.4071415 ], [ 37.1762309, 48.4074748 ], [ 37.1760104, 48.4074509 ] ] ] } },
{ "type": "Feature", "properties": { "Повна адреса": "Донецька  Білицьке Харківська 7", "Latitude": 48.405260323174723, "Longitude": 37.185579152099997, "COUNTA з Повна адреса": 1 }, "geometry": { "type": "Polygon", "coordinates": [ [ [ 37.1853964, 48.4051792 ], [ 37.1853697, 48.4052946 ], [ 37.1861173, 48.4053708 ], [ 37.186144, 48.4052554 ], [ 37.1853964, 48.4051792 ] ] ] } },
{ "type": "Feature", "properties": { "Повна адреса": "Донецька  Білицьке Харківська 9", "Latitude": 48.404976025961403, "Longitude": 37.185307982099999, "COUNTA з Повна адреса": 2 }, "geometry": { "type": "Polygon", "coordinates": [ [ [ 37.1851646, 48.4051057 ], [ 37.1853769, 48.4051296 ], [ 37.1854959, 48.4046624 ], [ 37.1852836, 48.4046385 ], [ 37.1851646, 48.4051057 ] ] ] } },
{ "type": "Feature", "properties": { "Повна адреса": "Донецька  Білицьке Донецька 18", "Latitude": 48.405231753962383, "Longitude": 37.1765955937, "COUNTA з Повна адреса": 1 }, "geometry": { "type": "Polygon", "coordinates": [ [ [ 37.1764649, 48.4052892 ], [ 37.1764981, 48.4051442 ], [ 37.1766784, 48.4051624 ], [ 37.176671, 48.4051943 ], [ 37.1767949, 48.4052069 ], [ 37.176801, 48.4051803 ], [ 37.1769692, 48.4051973 ], [ 37.1769371, 48.4053369 ], [ 37.1764649, 48.4052892 ] ] ] } },
{ "type": "Feature", "properties": { "Повна адреса": "Донецька  Білицьке Харківська 8", "Latitude": 48.405169843150688, "Longitude": 37.184770154200002, "COUNTA з Повна адреса": 3 }, "geometry": { "type": "Polygon", "coordinates": [ [ [ 37.1846738, 48.405279 ], [ 37.1848708, 48.4052973 ], [ 37.1849168, 48.4050797 ], [ 37.1847197, 48.4050614 ], [ 37.1846738, 48.405279 ] ] ] } },
{ "type": "Feature", "properties": { "Повна адреса": "Донецька  Білицьке Паркова 38", "Latitude": 48.408629973631683, "Longitude": 37.181849977799999, "COUNTA з Повна адреса": 1 }, "geometry": { "type": "Polygon", "coordinates": [ [ [ 37.1817177, 48.4085844 ], [ 37.1817094, 48.4086458 ], [ 37.1820122, 48.4086638 ], [ 37.1820205, 48.4086025 ], [ 37.1817177, 48.4085844 ] ] ] } },
{ "type": "Feature", "properties": { "Повна адреса": "Донецька  Білицьке Донецька 23", "Latitude": 48.405762288792396, "Longitude": 37.178454064999997, "COUNTA з Повна адреса": 4 }, "geometry": { "type": "Polygon", "coordinates": [ [ [ 37.1785181, 48.405975 ], [ 37.1785511, 48.40583 ], [ 37.1783043, 48.4058052 ], [ 37.1783355, 48.4056681 ], [ 37.1788021, 48.4057149 ], [ 37.178738, 48.405997 ], [ 37.1785181, 48.405975 ] ] ] } },
{ "type": "Feature", "properties": { "Повна адреса": "Донецька  Білицьке Донецька 25", "Latitude": 48.405877862728239, "Longitude": 37.179121753499999, "COUNTA з Повна адреса": 4 }, "geometry": { "type": "Polygon", "coordinates": [ [ [ 37.1790254, 48.4060595 ], [ 37.1791022, 48.4057447 ], [ 37.1797705, 48.4058165 ], [ 37.1797336, 48.4059679 ], [ 37.1795474, 48.4059478 ], [ 37.1795536, 48.4059225 ], [ 37.1792652, 48.4058915 ], [ 37.1792191, 48.4060803 ], [ 37.1790254, 48.4060595 ] ] ] } },
{ "type": "Feature", "properties": { "Повна адреса": "Донецька  Білицьке Донецька 24", "Latitude": 48.405441309592163, "Longitude": 37.178511283799999, "COUNTA з Повна адреса": 4 }, "geometry": { "type": "Polygon", "coordinates": [ [ [ 37.1781526, 48.4054719 ], [ 37.1781846, 48.4053268 ], [ 37.1783458, 48.4053425 ], [ 37.178339, 48.405373 ], [ 37.1786581, 48.4054041 ], [ 37.1787003, 48.4052131 ], [ 37.1788844, 48.405231 ], [ 37.178817, 48.4055366 ], [ 37.1781526, 48.4054719 ] ] ] } },
{ "type": "Feature", "properties": { "Повна адреса": "Донецька  Білицьке Паркова 7", "Latitude": 48.4100718, "Longitude": 37.1737043, "COUNTA з Повна адреса": 2 }, "geometry": { "type": "Polygon", "coordinates": [ [ [ 37.1735764, 48.4099759 ], [ 37.1735389, 48.4101249 ], [ 37.1738397, 48.4101582 ], [ 37.1738771, 48.4100092 ], [ 37.1735764, 48.4099759 ] ] ] } },
{ "type": "Feature", "properties": { "Повна адреса": "Донецька  Білицьке Праці 27", "Latitude": 48.404964509700136, "Longitude": 37.184237187599997, "COUNTA з Повна адреса": 1 }, "geometry": { "type": "Polygon", "coordinates": [ [ [ 37.184004571680298, 48.40518702565484 ], [ 37.184075002608537, 48.404854079448619 ], [ 37.18436953194481, 48.404892496318567 ], [ 37.184334316480687, 48.40500454552258 ], [ 37.184164641971748, 48.404991739899266 ], [ 37.184132627913456, 48.405203032683985 ], [ 37.184004571680298, 48.40518702565484 ] ] ] } },
{ "type": "Feature", "properties": { "Повна адреса": "Донецька  Білицьке Паркова 8", "Latitude": 48.4096992, "Longitude": 37.1738091, "COUNTA з Повна адреса": 1 }, "geometry": { "type": "Polygon", "coordinates": [ [ [ 37.1736766, 48.4096058 ], [ 37.1736379, 48.4097635 ], [ 37.1739073, 48.4097926 ], [ 37.173946, 48.4096349 ], [ 37.1736766, 48.4096058 ] ] ] } },
{ "type": "Feature", "properties": { "Повна адреса": "Донецька  Білицьке Донецька 29", "Latitude": 48.405982996889755, "Longitude": 37.180501639399999, "COUNTA з Повна адреса": 5 }, "geometry": { "type": "Polygon", "coordinates": [ [ [ 37.1804211, 48.4063326 ], [ 37.1804495, 48.4062278 ], [ 37.1804819, 48.4062316 ], [ 37.1805324, 48.4060452 ], [ 37.1802479, 48.4060112 ], [ 37.1802848, 48.4058751 ], [ 37.1807832, 48.4059346 ], [ 37.1806673, 48.406362 ], [ 37.1804211, 48.4063326 ] ] ] } },
{ "type": "Feature", "properties": { "Повна адреса": "Донецька  Білицьке Праці 38", "Latitude": 48.404408790609835, "Longitude": 37.185547315199997, "COUNTA з Повна адреса": 8 }, "geometry": { "type": "Polygon", "coordinates": [ [ [ 37.1854492, 48.4043537 ], [ 37.1854221, 48.4044745 ], [ 37.1863326, 48.4045646 ], [ 37.1863597, 48.4044438 ], [ 37.1861337, 48.4044214 ], [ 37.1854492, 48.4043537 ] ] ] } },
{ "type": "Feature", "properties": { "Повна адреса": "Донецька  Білицьке Харківська 12", "Latitude": 48.404195852303587, "Longitude": 37.185004337800002, "COUNTA з Повна адреса": 2 }, "geometry": { "type": "Polygon", "coordinates": [ [ [ 37.1849495, 48.4040368 ], [ 37.1848516, 48.4044192 ], [ 37.185073, 48.4044442 ], [ 37.1851708, 48.4040618 ], [ 37.1849495, 48.4040368 ] ] ] } },
{ "type": "Feature", "properties": { "Повна адреса": "Донецька  Білицьке Харківська 10", "Latitude": 48.404868889481584, "Longitude": 37.184841593900003, "COUNTA з Повна адреса": 1 }, "geometry": { "type": "Polygon", "coordinates": [ [ [ 37.1848158, 48.4045858 ], [ 37.1847306, 48.4049617 ], [ 37.1849666, 48.4049853 ], [ 37.1850518, 48.4046094 ], [ 37.1848158, 48.4045858 ] ] ] } },
{ "type": "Feature", "properties": { "Повна адреса": "Донецька  Білицьке Харківська 15", "Latitude": 48.403803204439683, "Longitude": 37.186207439199997, "COUNTA з Повна адреса": 5 }, "geometry": { "type": "Polygon", "coordinates": [ [ [ 37.1860709, 48.4039188 ], [ 37.1862913, 48.4039413 ], [ 37.1864271, 48.4033551 ], [ 37.1862068, 48.4033326 ], [ 37.1860709, 48.4039188 ] ] ] } },
{ "type": "Feature", "properties": { "Повна адреса": "Донецька  Білицьке Харківська 13", "Latitude": 48.404008445918905, "Longitude": 37.185594075399997, "COUNTA з Повна адреса": 6 }, "geometry": { "type": "Polygon", "coordinates": [ [ [ 37.1854589, 48.4041101 ], [ 37.1856831, 48.4041346 ], [ 37.1858293, 48.4035454 ], [ 37.1856051, 48.4035209 ], [ 37.1854589, 48.4041101 ] ] ] } },
{ "type": "Feature", "properties": { "Повна адреса": "Донецька  Білицьке Харківська 17", "Latitude": 48.403512203610987, "Longitude": 37.186762986300003, "COUNTA з Повна адреса": 5 }, "geometry": { "type": "Polygon", "coordinates": [ [ [ 37.1868131, 48.4029527 ], [ 37.1866715, 48.403579 ], [ 37.1868794, 48.4035997 ], [ 37.1870209, 48.4029734 ], [ 37.1868131, 48.4029527 ] ] ] } },
{ "type": "Feature", "properties": { "Повна адреса": "Донецька  Білицьке Паркова 23", "Latitude": 48.4102525, "Longitude": 37.1791229, "COUNTA з Повна адреса": 2 }, "geometry": { "type": "Polygon", "coordinates": [ [ [ 37.1789079, 48.4101824 ], [ 37.1789164, 48.4103157 ], [ 37.1790388, 48.4103123 ], [ 37.1790372, 48.4102878 ], [ 37.179269, 48.4102813 ], [ 37.1792706, 48.4103061 ], [ 37.1794072, 48.4103022 ], [ 37.1793987, 48.4101686 ], [ 37.1789079, 48.4101824 ] ] ] } },
{ "type": "Feature", "properties": { "Повна адреса": "Донецька  Білицьке Романа Шухевича 19", "Latitude": 48.40632641972384, "Longitude": 37.1790421679, "COUNTA з Повна адреса": 1 }, "geometry": { "type": "Polygon", "coordinates": [ [ [ 37.178914, 48.4064314 ], [ 37.179163, 48.4064593 ], [ 37.1791887, 48.4063587 ], [ 37.1791198, 48.406351 ], [ 37.1791434, 48.4062583 ], [ 37.1792099, 48.4062658 ], [ 37.1792363, 48.406162 ], [ 37.1789896, 48.4061344 ], [ 37.178914, 48.4064314 ] ] ] } },
{ "type": "Feature", "properties": { "Повна адреса": "Донецька  Білицьке Шухевича Романа 19", "Latitude": 48.406200357072862, "Longitude": 37.1790579257, "COUNTA з Повна адреса": 3 }, "geometry": { "type": "Polygon", "coordinates": [ [ [ 37.178914, 48.4064314 ], [ 37.179163, 48.4064593 ], [ 37.1791887, 48.4063587 ], [ 37.1791198, 48.406351 ], [ 37.1791434, 48.4062583 ], [ 37.1792099, 48.4062658 ], [ 37.1792363, 48.406162 ], [ 37.1789896, 48.4061344 ], [ 37.178914, 48.4064314 ] ] ] } },
{ "type": "Feature", "properties": { "Повна адреса": "Донецька  Білицьке Паркова 22", "Latitude": 48.4099185, "Longitude": 37.1783452, "COUNTA з Повна адреса": 3 }, "geometry": { "type": "Polygon", "coordinates": [ [ [ 37.1781352, 48.4099856 ], [ 37.178129, 48.4098521 ], [ 37.1782407, 48.4098498 ], [ 37.1782416, 48.4098697 ], [ 37.1784735, 48.409865 ], [ 37.1784725, 48.4098444 ], [ 37.1785988, 48.4098418 ], [ 37.1786051, 48.4099759 ], [ 37.1781352, 48.4099856 ] ] ] } },
{ "type": "Feature", "properties": { "Повна адреса": "Донецька  Білицьке Паркова 25", "Latitude": 48.4102359, "Longitude": 37.1796407, "COUNTA з Повна адреса": 1 }, "geometry": { "type": "Polygon", "coordinates": [ [ [ 37.1795073, 48.4101658 ], [ 37.1795151, 48.4103033 ], [ 37.1797908, 48.4102964 ], [ 37.1797829, 48.4101589 ], [ 37.1795073, 48.4101658 ] ] ] } },
{ "type": "Feature", "properties": { "Повна адреса": "Донецька  Білицьке Паркова 24", "Latitude": 48.409898, "Longitude": 37.1790194, "COUNTA з Повна адреса": 1 }, "geometry": { "type": "Polygon", "coordinates": [ [ [ 37.1787805, 48.4099717 ], [ 37.1787751, 48.4098285 ], [ 37.1789141, 48.4098262 ], [ 37.1789149, 48.4098479 ], [ 37.1791176, 48.4098445 ], [ 37.1791168, 48.4098228 ], [ 37.1792742, 48.4098202 ], [ 37.1792796, 48.4099634 ], [ 37.1787805, 48.4099717 ] ] ] } },
{ "type": "Feature", "properties": { "Повна адреса": "Донецька  Білицьке Романа Шухевича 20", "Latitude": 48.406499755868914, "Longitude": 37.178474885999997, "COUNTA з Повна адреса": 1 }, "geometry": { "type": "Polygon", "coordinates": [ [ [ 37.1783374, 48.4066089 ], [ 37.1783782, 48.4064076 ], [ 37.1786013, 48.4064275 ], [ 37.1785605, 48.4066288 ], [ 37.1783374, 48.4066089 ] ] ] } },
{ "type": "Feature", "properties": { "Повна адреса": "Донецька  Білицьке Донецька 12", "Latitude": 48.40509004024765, "Longitude": 37.174902789599997, "COUNTA з Повна адреса": 2 }, "geometry": { "type": "Polygon", "coordinates": [ [ [ 37.1747769, 48.4051373 ], [ 37.1747991, 48.4050409 ], [ 37.1751736, 48.4050789 ], [ 37.1751514, 48.4051753 ], [ 37.1747769, 48.4051373 ] ] ] } },
{ "type": "Feature", "properties": { "Повна адреса": "Донецька  Білицьке Паркова 28", "Latitude": 48.4098678, "Longitude": 37.1801074, "COUNTA з Повна адреса": 1 }, "geometry": { "type": "Polygon", "coordinates": [ [ [ 37.1798873, 48.4099343 ], [ 37.1798848, 48.409803 ], [ 37.1800018, 48.409802 ], [ 37.1800022, 48.4098216 ], [ 37.1802299, 48.4098197 ], [ 37.1802294, 48.409795 ], [ 37.1803797, 48.4097937 ], [ 37.1803823, 48.4099301 ], [ 37.1798873, 48.4099343 ] ] ] } },
{ "type": "Feature", "properties": { "Повна адреса": "Донецька  Білицьке Паркова 30", "Latitude": 48.4097908, "Longitude": 37.1807892, "COUNTA з Повна адреса": 2 }, "geometry": { "type": "Polygon", "coordinates": [ [ [ 37.1805326, 48.4099121 ], [ 37.1805295, 48.4097885 ], [ 37.1808083, 48.4097854 ], [ 37.1808053, 48.4096681 ], [ 37.1807739, 48.4096685 ], [ 37.1807716, 48.4095798 ], [ 37.1810213, 48.409577 ], [ 37.1810297, 48.4099066 ], [ 37.1805326, 48.4099121 ] ] ] } },
{ "type": "Feature", "properties": { "Повна адреса": "Донецька  Білицьке Донецька 14", "Latitude": 48.405121973824421, "Longitude": 37.1755521057, "COUNTA з Повна адреса": 2 }, "geometry": { "type": "Polygon", "coordinates": [ [ [ 37.1752196, 48.4051789 ], [ 37.17525, 48.4050478 ], [ 37.1754609, 48.4050693 ], [ 37.1754966, 48.4049146 ], [ 37.1757063, 48.404936 ], [ 37.1756402, 48.4052218 ], [ 37.1752196, 48.4051789 ] ] ] } },
{ "type": "Feature", "properties": { "Повна адреса": "Донецька  Білицьке Донецька 16", "Latitude": 48.405152461286647, "Longitude": 37.1760324221, "COUNTA з Повна адреса": 1 }, "geometry": { "type": "Polygon", "coordinates": [ [ [ 37.1758985, 48.4052304 ], [ 37.1759652, 48.4049556 ], [ 37.176166, 48.4049771 ], [ 37.1761307, 48.4051226 ], [ 37.1763652, 48.4051477 ], [ 37.1763339, 48.4052769 ], [ 37.1758985, 48.4052304 ] ] ] } },
{ "type": "Feature", "properties": { "Повна адреса": "Донецька  Білицьке Донецька 15", "Latitude": 48.405505176745706, "Longitude": 37.175935308600003, "COUNTA з Повна адреса": 1 }, "geometry": { "type": "Polygon", "coordinates": [ [ [ 37.1757878, 48.4056872 ], [ 37.1758481, 48.4054098 ], [ 37.1762836, 48.4054514 ], [ 37.176254, 48.4055875 ], [ 37.1760104, 48.4055642 ], [ 37.1759797, 48.4057056 ], [ 37.1757878, 48.4056872 ] ] ] } },
{ "type": "Feature", "properties": { "Повна адреса": "Донецька  Білицьке Паркова 10", "Latitude": 48.4097188, "Longitude": 37.174384, "COUNTA з Повна адреса": 3 }, "geometry": { "type": "Polygon", "coordinates": [ [ [ 37.1741235, 48.4098082 ], [ 37.1741551, 48.4096732 ], [ 37.1743755, 48.4096959 ], [ 37.1744102, 48.4095475 ], [ 37.17462, 48.4095691 ], [ 37.1745537, 48.4098525 ], [ 37.1741235, 48.4098082 ] ] ] } },
{ "type": "Feature", "properties": { "Повна адреса": "Донецька  Білицьке Південна 1", "Latitude": 48.4038513, "Longitude": 37.1811194, "COUNTA з Повна адреса": 2 }, "geometry": { "type": "Polygon", "coordinates": [ [ [ 37.180972958930624, 48.403982704210243 ], [ 37.181142633439556, 48.404008315456878 ], [ 37.181261085455233, 48.403528104582527 ], [ 37.181123425004586, 48.403496090524243 ], [ 37.180972958930624, 48.403982704210243 ] ] ] } },
{ "type": "Feature", "properties": { "Повна адреса": "Донецька  Білицьке Паркова 1", "Latitude": 48.4098911, "Longitude": 37.1716841, "COUNTA з Повна адреса": 4 }, "geometry": { "type": "Polygon", "coordinates": [ [ [ 37.171488, 48.4100438 ], [ 37.1715551, 48.409761 ], [ 37.1719911, 48.4098065 ], [ 37.1719566, 48.4099521 ], [ 37.1717461, 48.4099301 ], [ 37.1717136, 48.4100674 ], [ 37.171488, 48.4100438 ] ] ] } },
{ "type": "Feature", "properties": { "Повна адреса": "Донецька  Білицьке Південна 2", "Latitude": 48.4038116, "Longitude": 37.1807226, "COUNTA з Повна адреса": 1 }, "geometry": { "type": "Polygon", "coordinates": [ [ [ 37.180604797260294, 48.403937884528638 ], [ 37.180777673175058, 48.403966697181097 ], [ 37.180880118161582, 48.403483284900922 ], [ 37.180729652087621, 48.40347368068344 ], [ 37.180604797260294, 48.403937884528638 ] ] ] } },
{ "type": "Feature", "properties": { "Повна адреса": "Донецька  Білицьке Паркова 12", "Latitude": 48.4098292, "Longitude": 37.1748992, "COUNTA з Повна адреса": 3 }, "geometry": { "type": "Polygon", "coordinates": [ [ [ 37.1748085, 48.409883 ], [ 37.1748819, 48.409598 ], [ 37.1750753, 48.4096199 ], [ 37.1750362, 48.4097718 ], [ 37.1752458, 48.4097956 ], [ 37.1752115, 48.4099288 ], [ 37.1748085, 48.409883 ] ] ] } },
{ "type": "Feature", "properties": { "Повна адреса": "Донецька  Білицьке Праці 5-а", "Latitude": 48.404308250061533, "Longitude": 37.178134049900002, "COUNTA з Повна адреса": 1 }, "geometry": { "type": "Polygon", "coordinates": [ [ [ 37.178226152729344, 48.404367940045042 ], [ 37.178232555541001, 48.40429430771097 ], [ 37.177960436045545, 48.404262293652685 ], [ 37.177944429016399, 48.404342328798407 ], [ 37.178226152729344, 48.404367940045042 ] ] ] } },
{ "type": "Feature", "properties": { "Повна адреса": "Донецька  Білицьке Праці 5А", "Latitude": 48.404344878225537, "Longitude": 37.178063987800002, "COUNTA з Повна адреса": 2 }, "geometry": { "type": "Polygon", "coordinates": [ [ [ 37.178226152729344, 48.404367940045042 ], [ 37.178232555541001, 48.40429430771097 ], [ 37.177960436045545, 48.404262293652685 ], [ 37.177944429016399, 48.404342328798407 ], [ 37.178226152729344, 48.404367940045042 ] ] ] } },
{ "type": "Feature", "properties": { "Повна адреса": "Донецька  Білицьке Паркова 9", "Latitude": 48.410207430938904, "Longitude": 37.174984601299997, "COUNTA з Повна адреса": 1 }, "geometry": { "type": "Polygon", "coordinates": [ [ [ 37.174727, 48.4102615 ], [ 37.1747632, 48.4100968 ], [ 37.1752644, 48.4101453 ], [ 37.1752282, 48.41031 ], [ 37.174727, 48.4102615 ] ] ] } },
{ "type": "Feature", "properties": { "Повна адреса": "Донецька  Білицьке Донецька 30", "Latitude": 48.405547754848065, "Longitude": 37.180384720299998, "COUNTA з Повна адреса": 1 }, "geometry": { "type": "Polygon", "coordinates": [ [ [ 37.180222762831356, 48.405597279883352 ], [ 37.18081182150388, 48.405663442270487 ], [ 37.180842768426899, 48.405535386037329 ], [ 37.180253709754368, 48.405477760732403 ], [ 37.180222762831356, 48.405597279883352 ] ] ] } },
{ "type": "Feature", "properties": { "Повна адреса": "Донецька  Білицьке Паркова 14", "Latitude": 48.4099035, "Longitude": 37.1756132, "COUNTA з Повна адреса": 1 }, "geometry": { "type": "Polygon", "coordinates": [ [ [ 37.1753786, 48.4099454 ], [ 37.1754083, 48.4098179 ], [ 37.1756922, 48.4098471 ], [ 37.1757027, 48.4098017 ], [ 37.175918, 48.4098239 ], [ 37.1758777, 48.4099967 ], [ 37.1753786, 48.4099454 ] ] ] } },
{ "type": "Feature", "properties": { "Повна адреса": "Донецька  Білицьке Паркова 16", "Latitude": 48.409689, "Longitude": 37.1762092, "COUNTA з Повна адреса": 5 }, "geometry": { "type": "Polygon", "coordinates": [ [ [ 37.175978, 48.4097444 ], [ 37.1760145, 48.4095885 ], [ 37.1764844, 48.409637 ], [ 37.1764478, 48.4097929 ], [ 37.175978, 48.4097444 ] ] ] } },
{ "type": "Feature", "properties": { "Повна адреса": "Донецька  Білицьке Паркова 15", "Latitude": 48.410298170331345, "Longitude": 37.176243954100002, "COUNTA з Повна адреса": 1 }, "geometry": { "type": "Polygon", "coordinates": [ [ [ 37.1760886, 48.4102407 ], [ 37.1760767, 48.4103556 ], [ 37.1765006, 48.410375 ], [ 37.1765126, 48.4102601 ], [ 37.1760886, 48.4102407 ] ] ] } },
{ "type": "Feature", "properties": { "Повна адреса": "Донецька  Білицьке Добропільська 7", "Latitude": 48.4102851, "Longitude": 37.1715506, "COUNTA з Повна адреса": 1 }, "geometry": { "type": "Polygon", "coordinates": [ [ [ 37.1716088, 48.4104171 ], [ 37.1713797, 48.4103981 ], [ 37.1714126, 48.4102234 ], [ 37.1716417, 48.4102425 ], [ 37.1716088, 48.4104171 ] ] ] } },
{ "type": "Feature", "properties": { "Повна адреса": "Донецька  Білицьке Перемоги 14", "Latitude": 48.404972916039533, "Longitude": 37.181938661700002, "COUNTA з Повна адреса": 4 }, "geometry": { "type": "Polygon", "coordinates": [ [ [ 37.1819988, 48.4050516 ], [ 37.1817998, 48.4050295 ], [ 37.1818194, 48.4049518 ], [ 37.1818624, 48.4049566 ], [ 37.1819028, 48.4047963 ], [ 37.1818598, 48.4047916 ], [ 37.1818833, 48.4046982 ], [ 37.1820823, 48.4047203 ], [ 37.1819988, 48.4050516 ] ] ] } },
{ "type": "Feature", "properties": { "Повна адреса": "Донецька  Білицьке Паркова 2", "Latitude": 48.4094473, "Longitude": 37.171798, "COUNTA з Повна адреса": 3 }, "geometry": { "type": "Polygon", "coordinates": [ [ [ 37.1716091, 48.4095475 ], [ 37.1716754, 48.4092591 ], [ 37.1718818, 48.40928 ], [ 37.1718492, 48.4094217 ], [ 37.1720814, 48.4094452 ], [ 37.1720477, 48.4095919 ], [ 37.1716091, 48.4095475 ] ] ] } },
{ "type": "Feature", "properties": { "Повна адреса": "Донецька  Білицьке Перемоги 3", "Latitude": 48.40557966443609, "Longitude": 37.182258003000001, "COUNTA з Повна адреса": 2 }, "geometry": { "type": "Polygon", "coordinates": [ [ [ 37.1823496, 48.4056658 ], [ 37.1821256, 48.4056392 ], [ 37.182182, 48.4054299 ], [ 37.182406, 48.4054565 ], [ 37.1823496, 48.4056658 ] ] ] } },
{ "type": "Feature", "properties": { "Повна адреса": "Донецька  Білицьке Паркова 20", "Latitude": 48.4099421, "Longitude": 37.1774655, "COUNTA з Повна адреса": 1 }, "geometry": { "type": "Polygon", "coordinates": [ [ [ 37.1772748, 48.4100161 ], [ 37.1772645, 48.4098627 ], [ 37.1777302, 48.4098488 ], [ 37.1777405, 48.4100022 ], [ 37.1772748, 48.4100161 ] ] ] } },
{ "type": "Feature", "properties": { "Повна адреса": "Донецька  Білицьке Перемоги 7", "Latitude": 48.404962271330824, "Longitude": 37.182407028900002, "COUNTA з Повна адреса": 1 }, "geometry": { "type": "Polygon", "coordinates": [ [ [ 37.1822828, 48.4050225 ], [ 37.1823307, 48.4048396 ], [ 37.1825228, 48.4048618 ], [ 37.1824749, 48.4050447 ], [ 37.1822828, 48.4050225 ] ] ] } },
{ "type": "Feature", "properties": { "Повна адреса": "Донецька  Білицьке Донецька 44", "Latitude": 48.406346083463291, "Longitude": 37.185941072200002, "COUNTA з Повна адреса": 1 }, "geometry": { "type": "Polygon", "coordinates": [ [ [ 37.1857511, 48.4063833 ], [ 37.1859419, 48.4064855 ], [ 37.1862992, 48.4061914 ], [ 37.1861084, 48.4060892 ], [ 37.1857511, 48.4063833 ] ] ] } },
{ "type": "Feature", "properties": { "Повна адреса": "Донецька  Білицьке Донецька 42", "Latitude": 48.40629287163943, "Longitude": 37.1851960459, "COUNTA з Повна адреса": 3 }, "geometry": { "type": "Polygon", "coordinates": [ [ [ 37.184998, 48.4062598 ], [ 37.1851207, 48.4061578 ], [ 37.1857528, 48.4064931 ], [ 37.1856301, 48.4065951 ], [ 37.185094, 48.4063107 ], [ 37.184998, 48.4062598 ] ] ] } },
{ "type": "Feature", "properties": { "Повна адреса": "Донецька  Білицьке Перемоги 9", "Latitude": 48.404466995621981, "Longitude": 37.182524648600001, "COUNTA з Повна адреса": 2 }, "geometry": { "type": "Polygon", "coordinates": [ [ [ 37.1824457, 48.404339 ], [ 37.1823565, 48.4047179 ], [ 37.182557, 48.4047387 ], [ 37.1826461, 48.4043598 ], [ 37.1824457, 48.404339 ] ] ] } },
{ "type": "Feature", "properties": { "Повна адреса": "Донецька  Білицьке Миру 23", "Latitude": 48.407464711671352, "Longitude": 37.178154856699997, "COUNTA з Повна адреса": 4 }, "geometry": { "type": "Polygon", "coordinates": [ [ [ 37.1779577, 48.4073107 ], [ 37.1779246, 48.4074477 ], [ 37.1781572, 48.4074725 ], [ 37.178123, 48.4076137 ], [ 37.1783457, 48.4076375 ], [ 37.178413, 48.4073593 ], [ 37.1779577, 48.4073107 ] ] ] } },
{ "type": "Feature", "properties": { "Повна адреса": "Донецька  Білицьке Праці 7", "Latitude": 48.403940379294504, "Longitude": 37.177914961799999, "COUNTA з Повна адреса": 5 }, "geometry": { "type": "Polygon", "coordinates": [ [ [ 37.1777946, 48.4038827 ], [ 37.1777719, 48.4040155 ], [ 37.1779025, 48.4040254 ], [ 37.1779069, 48.4039998 ], [ 37.1783421, 48.4040327 ], [ 37.1783377, 48.4040583 ], [ 37.1784976, 48.4040704 ], [ 37.1785203, 48.4039376 ], [ 37.1777946, 48.4038827 ] ] ] } },
{ "type": "Feature", "properties": { "Повна адреса": "Донецька  Білицьке Миру 21", "Latitude": 48.4074395, "Longitude": 37.1776242, "COUNTA з Повна адреса": 2 }, "geometry": { "type": "Polygon", "coordinates": [ [ [ 37.1774628, 48.4076005 ], [ 37.1776858, 48.4076218 ], [ 37.1777289, 48.4074231 ], [ 37.1777931, 48.4074292 ], [ 37.1778231, 48.4072911 ], [ 37.1775359, 48.4072636 ], [ 37.1774628, 48.4076005 ] ] ] } },
{ "type": "Feature", "properties": { "Повна адреса": "Донецька  Білицьке Миру 27", "Latitude": 48.4078384, "Longitude": 37.1795381, "COUNTA з Повна адреса": 1 }, "geometry": { "type": "Polygon", "coordinates": [ [ [ 37.1794383, 48.4077308 ], [ 37.1793988, 48.4078829 ], [ 37.179689, 48.4079162 ], [ 37.1797286, 48.4077641 ], [ 37.1794383, 48.4077308 ] ] ] } },
{ "type": "Feature", "properties": { "Повна адреса": "Донецька  Білицьке Праці 9", "Latitude": 48.404120323331817, "Longitude": 37.179010652199999, "COUNTA з Повна адреса": 1 }, "geometry": { "type": "Polygon", "coordinates": [ [ [ 37.1786345, 48.4039625 ], [ 37.1786111, 48.4040872 ], [ 37.1787357, 48.4040975 ], [ 37.1787393, 48.4040786 ], [ 37.1789439, 48.4040955 ], [ 37.1789057, 48.4043 ], [ 37.1791061, 48.4043165 ], [ 37.1791642, 48.4040062 ], [ 37.1786345, 48.4039625 ] ] ] } },
{ "type": "Feature", "properties": { "Повна адреса": "Донецька  Білицьке Миру 25", "Latitude": 48.407813364725875, "Longitude": 37.178703788599996, "COUNTA з Повна адреса": 5 }, "geometry": { "type": "Polygon", "coordinates": [ [ [ 37.1786364, 48.4076365 ], [ 37.1785559, 48.4079435 ], [ 37.1787518, 48.4079661 ], [ 37.1788019, 48.4077751 ], [ 37.1790916, 48.4078086 ], [ 37.1790827, 48.4078425 ], [ 37.1792925, 48.4078668 ], [ 37.1793318, 48.4077169 ], [ 37.1786364, 48.4076365 ] ] ] } },
{ "type": "Feature", "properties": { "Повна адреса": "Донецька  Білицьке Миру 29", "Latitude": 48.407853801638723, "Longitude": 37.179962605500002, "COUNTA з Повна адреса": 6 }, "geometry": { "type": "Polygon", "coordinates": [ [ [ 37.1799855, 48.4082368 ], [ 37.18001, 48.4081284 ], [ 37.180064, 48.4081338 ], [ 37.1801112, 48.4079254 ], [ 37.1798353, 48.4078979 ], [ 37.1798648, 48.4077681 ], [ 37.1803227, 48.4078138 ], [ 37.1802215, 48.4082603 ], [ 37.1799855, 48.4082368 ] ] ] } },
{ "type": "Feature", "properties": { "Повна адреса": "Донецька  Білицьке Незалежності 21", "Latitude": 48.407846987391629, "Longitude": 37.175370876499997, "COUNTA з Повна адреса": 2 }, "geometry": { "type": "Polygon", "coordinates": [ [ [ 37.1752514, 48.4079047 ], [ 37.1752995, 48.4077344 ], [ 37.1755548, 48.4077662 ], [ 37.1755067, 48.4079365 ], [ 37.1752514, 48.4079047 ] ] ] } },
{ "type": "Feature", "properties": { "Повна адреса": "Донецька  Білицьке Незалежності 15", "Latitude": 48.408985971223757, "Longitude": 37.175126048099997, "COUNTA з Повна адреса": 2 }, "geometry": { "type": "Polygon", "coordinates": [ [ [ 37.1749757, 48.4090943 ], [ 37.1750385, 48.4087842 ], [ 37.1752966, 48.4088073 ], [ 37.1752337, 48.4091173 ], [ 37.1749757, 48.4090943 ] ] ] } },
{ "type": "Feature", "properties": { "Повна адреса": "Донецька  Білицьке Незалежності 30", "Latitude": 48.406165123415214, "Longitude": 37.175253784699997, "COUNTA з Повна адреса": 1 }, "geometry": { "type": "Polygon", "coordinates": [ [ [ 37.175449, 48.4060734 ], [ 37.1754123, 48.4062922 ], [ 37.1751267, 48.4062711 ], [ 37.1751634, 48.4060523 ], [ 37.175449, 48.4060734 ] ] ] } },
{ "type": "Feature", "properties": { "Повна адреса": "Донецька  Білицьке Федора Чабана 28", "Latitude": 48.408766735053952, "Longitude": 37.179757843499999, "COUNTA з Повна адреса": 4 }, "geometry": { "type": "Polygon", "coordinates": [ [ [ 37.1795976, 48.4088089 ], [ 37.179626, 48.4086937 ], [ 37.1798888, 48.4087222 ], [ 37.179967, 48.4084049 ], [ 37.1801637, 48.4084263 ], [ 37.180057, 48.4088588 ], [ 37.1795976, 48.4088089 ] ] ] } },
{ "type": "Feature", "properties": { "Повна адреса": "Донецька  Білицьке Чабана Федора 3", "Latitude": 48.408316123923512, "Longitude": 37.172677467, "COUNTA з Повна адреса": 1 }, "geometry": { "type": "Polygon", "coordinates": [ [ [ 37.1726032, 48.4082579 ], [ 37.1725812, 48.4083615 ], [ 37.1728992, 48.4083912 ], [ 37.1729212, 48.4082877 ], [ 37.1726032, 48.4082579 ] ] ] } },
{ "type": "Feature", "properties": { "Повна адреса": "Донецька  Білицьке Праці 3", "Latitude": 48.404014892255475, "Longitude": 37.177191121600003, "COUNTA з Повна адреса": 2 }, "geometry": { "type": "Polygon", "coordinates": [ [ [ 37.177085, 48.404118 ], [ 37.1772885, 48.4041351 ], [ 37.1773224, 48.4039573 ], [ 37.177621, 48.4039824 ], [ 37.1776462, 48.4038504 ], [ 37.1771441, 48.4038082 ], [ 37.177085, 48.404118 ] ] ] } },
{ "type": "Feature", "properties": { "Повна адреса": "Донецька  Білицьке Праці 34", "Latitude": 48.404312823716381, "Longitude": 37.184436097000003, "COUNTA з Повна адреса": 1 }, "geometry": { "type": "Polygon", "coordinates": [ [ [ 37.1842499, 48.404216 ], [ 37.1842168, 48.4043541 ], [ 37.184775, 48.4044129 ], [ 37.184808, 48.4042748 ], [ 37.1842499, 48.404216 ] ] ] } },
{ "type": "Feature", "properties": { "Повна адреса": "Донецька  Білицьке Федора Чабана 11", "Latitude": 48.408501000453107, "Longitude": 37.174677248599998, "COUNTA з Повна адреса": 1 }, "geometry": { "type": "Polygon", "coordinates": [ [ [ 37.1745668, 48.4084665 ], [ 37.1745474, 48.4085606 ], [ 37.1748523, 48.4085883 ], [ 37.1748717, 48.4084942 ], [ 37.1745668, 48.4084665 ] ] ] } },
{ "type": "Feature", "properties": { "Повна адреса": "Донецька  Білицьке Праці 42", "Latitude": 48.404642930069457, "Longitude": 37.187782606799999, "COUNTA з Повна адреса": 7 }, "geometry": { "type": "Polygon", "coordinates": [ [ [ 37.1876933, 48.4045869 ], [ 37.1876677, 48.4047088 ], [ 37.188601, 48.404795 ], [ 37.1886266, 48.4046732 ], [ 37.1876933, 48.4045869 ] ] ] } },
{ "type": "Feature", "properties": { "Повна адреса": "Донецька  Білицьке Федора Чабана 13", "Latitude": 48.40861518757962, "Longitude": 37.175199761800002, "COUNTA з Повна адреса": 3 }, "geometry": { "type": "Polygon", "coordinates": [ [ [ 37.1750784, 48.4086925 ], [ 37.1751144, 48.4085252 ], [ 37.1756313, 48.4085742 ], [ 37.1756034, 48.4087038 ], [ 37.1752766, 48.4086728 ], [ 37.1752685, 48.4087105 ], [ 37.1750784, 48.4086925 ] ] ] } },
{ "type": "Feature", "properties": { "Повна адреса": "Донецька  Білицьке Праці 41", "Latitude": 48.404980196302077, "Longitude": 37.187907710899999, "COUNTA з Повна адреса": 3 }, "geometry": { "type": "Polygon", "coordinates": [ [ [ 37.1876934, 48.4049163 ], [ 37.1876698, 48.4050252 ], [ 37.1885499, 48.4051095 ], [ 37.1885735, 48.4050006 ], [ 37.1876934, 48.4049163 ] ] ] } },
{ "type": "Feature", "properties": { "Повна адреса": "Донецька  Білицьке Федора Чабана 12", "Latitude": 48.408201601657048, "Longitude": 37.174819069100003, "COUNTA з Повна адреса": 1 }, "geometry": { "type": "Polygon", "coordinates": [ [ [ 37.1744854, 48.4082738 ], [ 37.1745164, 48.4081444 ], [ 37.1747352, 48.4081676 ], [ 37.1747722, 48.4080133 ], [ 37.1749857, 48.4080359 ], [ 37.1749176, 48.4083196 ], [ 37.1744854, 48.4082738 ] ] ] } },
{ "type": "Feature", "properties": { "Повна адреса": "Донецька  Білицьке Федора Чабана 15", "Latitude": 48.408670470368214, "Longitude": 37.175866585000001, "COUNTA з Повна адреса": 5 }, "geometry": { "type": "Polygon", "coordinates": [ [ [ 37.1757321, 48.408723 ], [ 37.175765, 48.4085822 ], [ 37.1762148, 48.4086286 ], [ 37.1761819, 48.4087693 ], [ 37.1761436, 48.4087654 ], [ 37.1761079, 48.4089182 ], [ 37.175913, 48.4088981 ], [ 37.1759488, 48.4087453 ], [ 37.1757321, 48.408723 ] ] ] } },
{ "type": "Feature", "properties": { "Повна адреса": "Донецька  Білицьке Чабана Федора 15", "Latitude": 48.408696790065797, "Longitude": 37.176039101699999, "COUNTA з Повна адреса": 1 }, "geometry": { "type": "Polygon", "coordinates": [ [ [ 37.1757321, 48.408723 ], [ 37.175765, 48.4085822 ], [ 37.1762148, 48.4086286 ], [ 37.1761819, 48.4087693 ], [ 37.1761436, 48.4087654 ], [ 37.1761079, 48.4089182 ], [ 37.175913, 48.4088981 ], [ 37.1759488, 48.4087453 ], [ 37.1757321, 48.408723 ] ] ] } },
{ "type": "Feature", "properties": { "Повна адреса": "Донецька  Білицьке Романа Шухевича 4", "Latitude": 48.409619806480499, "Longitude": 37.1777185101, "COUNTA з Повна адреса": 1 }, "geometry": { "type": "Polygon", "coordinates": [ [ [ 37.177656, 48.409408 ], [ 37.177558, 48.4097099 ], [ 37.1778276, 48.4097484 ], [ 37.1779256, 48.4094466 ], [ 37.177656, 48.409408 ] ] ] } },
{ "type": "Feature", "properties": { "Повна адреса": "Донецька  Білицьке Шухевича Романа 4", "Latitude": 48.40952525949227, "Longitude": 37.1777500257, "COUNTA з Повна адреса": 1 }, "geometry": { "type": "Polygon", "coordinates": [ [ [ 37.177656, 48.409408 ], [ 37.177558, 48.4097099 ], [ 37.1778276, 48.4097484 ], [ 37.1779256, 48.4094466 ], [ 37.177656, 48.409408 ] ] ] } },
{ "type": "Feature", "properties": { "Повна адреса": "Донецька  Білицьке Федора Чабана 14", "Latitude": 48.408265462638894, "Longitude": 37.175258049299998, "COUNTA з Повна адреса": 3 }, "geometry": { "type": "Polygon", "coordinates": [ [ [ 37.1751599, 48.4083431 ], [ 37.1752322, 48.4080699 ], [ 37.1754102, 48.4080906 ], [ 37.1753691, 48.408246 ], [ 37.1756192, 48.4082752 ], [ 37.175588, 48.408393 ], [ 37.1751599, 48.4083431 ] ] ] } },
{ "type": "Feature", "properties": { "Повна адреса": "Донецька  Білицьке Федора Чабана 16", "Latitude": 48.408358722623099, "Longitude": 37.175922526699999, "COUNTA з Повна адреса": 2 }, "geometry": { "type": "Polygon", "coordinates": [ [ [ 37.1757258, 48.4084069 ], [ 37.1757539, 48.4082815 ], [ 37.1760666, 48.4083123 ], [ 37.1760853, 48.4082288 ], [ 37.176278, 48.4082478 ], [ 37.1762312, 48.4084568 ], [ 37.1757258, 48.4084069 ] ] ] } },
{ "type": "Feature", "properties": { "Повна адреса": "Донецька  Білицьке Федора Чабана 19", "Latitude": 48.408883310034192, "Longitude": 37.177029988999998, "COUNTA з Повна адреса": 5 }, "geometry": { "type": "Polygon", "coordinates": [ [ [ 37.1769037, 48.4090071 ], [ 37.17697, 48.4087164 ], [ 37.1774056, 48.4087602 ], [ 37.1773734, 48.4089013 ], [ 37.1771446, 48.4088783 ], [ 37.1771104, 48.4090279 ], [ 37.1769037, 48.4090071 ] ] ] } },
{ "type": "Feature", "properties": { "Повна адреса": "Донецька  Білицьке Чабана Федора 19", "Latitude": 48.408964912520375, "Longitude": 37.177029988999998, "COUNTA з Повна адреса": 1 }, "geometry": { "type": "Polygon", "coordinates": [ [ [ 37.1769037, 48.4090071 ], [ 37.17697, 48.4087164 ], [ 37.1774056, 48.4087602 ], [ 37.1773734, 48.4089013 ], [ 37.1771446, 48.4088783 ], [ 37.1771104, 48.4090279 ], [ 37.1769037, 48.4090071 ] ] ] } },
{ "type": "Feature", "properties": { "Повна адреса": "Донецька  Білицьке Федора Чабана 20", "Latitude": 48.408498612599395, "Longitude": 37.177169878999997, "COUNTA з Повна адреса": 1 }, "geometry": { "type": "Polygon", "coordinates": [ [ [ 37.177031, 48.4085427 ], [ 37.1770737, 48.4083706 ], [ 37.1772496, 48.4083898 ], [ 37.1772421, 48.4084202 ], [ 37.1775737, 48.4084564 ], [ 37.1775385, 48.4085982 ], [ 37.177031, 48.4085427 ] ] ] } },
{ "type": "Feature", "properties": { "Повна адреса": "Донецька  Білицьке Паркова 31", "Latitude": 48.4101677, "Longitude": 37.1815254, "COUNTA з Повна адреса": 3 }, "geometry": { "type": "Polygon", "coordinates": [ [ [ 37.1813091, 48.4101103 ], [ 37.1813146, 48.4102397 ], [ 37.1817594, 48.4102314 ], [ 37.1817539, 48.410102 ], [ 37.1813091, 48.4101103 ] ] ] } },
{ "type": "Feature", "properties": { "Повна адреса": "Донецька  Білицьке Федора Чабана 22", "Latitude": 48.408533585093458, "Longitude": 37.177799383900002, "COUNTA з Повна адреса": 1 }, "geometry": { "type": "Polygon", "coordinates": [ [ [ 37.1776659, 48.4086051 ], [ 37.1776981, 48.4084664 ], [ 37.1779261, 48.4084897 ], [ 37.1779599, 48.4083438 ], [ 37.1781662, 48.4083649 ], [ 37.1781003, 48.4086495 ], [ 37.1776659, 48.4086051 ] ] ] } },
{ "type": "Feature", "properties": { "Повна адреса": "Донецька  Білицьке Чабана Федора 22", "Latitude": 48.408568557587543, "Longitude": 37.178020876300003, "COUNTA з Повна адреса": 1 }, "geometry": { "type": "Polygon", "coordinates": [ [ [ 37.1776659, 48.4086051 ], [ 37.1776981, 48.4084664 ], [ 37.1779261, 48.4084897 ], [ 37.1779599, 48.4083438 ], [ 37.1781662, 48.4083649 ], [ 37.1781003, 48.4086495 ], [ 37.1776659, 48.4086051 ] ] ] } },
{ "type": "Feature", "properties": { "Повна адреса": "Донецька  Білицьке Федора Чабана 24", "Latitude": 48.408603530081599, "Longitude": 37.178545463799999, "COUNTA з Повна адреса": 1 }, "geometry": { "type": "Polygon", "coordinates": [ [ [ 37.1783895, 48.4086835 ], [ 37.1784598, 48.4083747 ], [ 37.1786658, 48.4083954 ], [ 37.1786261, 48.4085695 ], [ 37.1791167, 48.4086188 ], [ 37.179086, 48.4087535 ], [ 37.1783895, 48.4086835 ] ] ] } },
{ "type": "Feature", "properties": { "Повна адреса": "Донецька  Білицьке Паркова 34", "Latitude": 48.410142126073183, "Longitude": 37.1820838131, "COUNTA з Повна адреса": 4 }, "geometry": { "type": "Polygon", "coordinates": [ [ [ 37.1819564, 48.4100881 ], [ 37.1819607, 48.4102217 ], [ 37.1824515, 48.4102148 ], [ 37.1824472, 48.4100812 ], [ 37.1819564, 48.4100881 ] ] ] } },
{ "type": "Feature", "properties": { "Повна адреса": "Донецька  Білицьке Праці 13", "Latitude": 48.404142085152941, "Longitude": 37.179871704, "COUNTA з Повна адреса": 4 }, "geometry": { "type": "Polygon", "coordinates": [ [ [ 37.179817, 48.4040807 ], [ 37.1797894, 48.4042028 ], [ 37.1799207, 48.4042159 ], [ 37.1799255, 48.4041946 ], [ 37.1801201, 48.404214 ], [ 37.1801152, 48.4042352 ], [ 37.1802825, 48.4042519 ], [ 37.1803101, 48.4041297 ], [ 37.179817, 48.4040807 ] ] ] } },
{ "type": "Feature", "properties": { "Повна адреса": "Донецька  Білицьке Миру 24", "Latitude": 48.4068948, "Longitude": 37.1782801, "COUNTA з Повна адреса": 2 }, "geometry": { "type": "Polygon", "coordinates": [ [ [ 37.1780297, 48.4069616 ], [ 37.1782494, 48.4069843 ], [ 37.1782442, 48.4070064 ], [ 37.1783252, 48.4070147 ], [ 37.1783304, 48.4069926 ], [ 37.1784854, 48.4070086 ], [ 37.1785495, 48.4067349 ], [ 37.1783184, 48.406711 ], [ 37.1782843, 48.4068566 ], [ 37.1780597, 48.4068334 ], [ 37.1780297, 48.4069616 ] ] ] } },
{ "type": "Feature", "properties": { "Повна адреса": "Донецька  Білицьке Миру 26", "Latitude": 48.406783396833603, "Longitude": 37.179010652199999, "COUNTA з Повна адреса": 6 }, "geometry": { "type": "Polygon", "coordinates": [ [ [ 37.1788185, 48.4068517 ], [ 37.1788895, 48.4065324 ], [ 37.1790698, 48.4065501 ], [ 37.1790256, 48.4067487 ], [ 37.1793343, 48.406779 ], [ 37.1793409, 48.4067493 ], [ 37.1795502, 48.4067698 ], [ 37.1795168, 48.40692 ], [ 37.1788185, 48.4068517 ] ] ] } },
{ "type": "Feature", "properties": { "Повна адреса": "Донецька  Білицьке Миру 30", "Latitude": 48.4068358, "Longitude": 37.1803595, "COUNTA з Повна адреса": 2 }, "geometry": { "type": "Polygon", "coordinates": [ [ [ 37.1800307, 48.406972 ], [ 37.1800575, 48.4068552 ], [ 37.1803271, 48.4068825 ], [ 37.1804008, 48.4065612 ], [ 37.1806022, 48.4065816 ], [ 37.1805016, 48.4070196 ], [ 37.1800307, 48.406972 ] ] ] } },
{ "type": "Feature", "properties": { "Повна адреса": "Донецька  Білицьке Праці 29", "Latitude": 48.404642970172823, "Longitude": 37.184536085300003, "COUNTA з Повна адреса": 1 }, "geometry": { "type": "Polygon", "coordinates": [ [ [ 37.1846598, 48.4047053 ], [ 37.1844028, 48.4046745 ], [ 37.1844388, 48.4045421 ], [ 37.1846958, 48.4045729 ], [ 37.1846598, 48.4047053 ] ] ] } },
{ "type": "Feature", "properties": { "Повна адреса": "Донецька  Білицьке Романа Шухевича 12", "Latitude": 48.408122812500189, "Longitude": 37.178112455899999, "COUNTA з Повна адреса": 1 }, "geometry": { "type": "Polygon", "coordinates": [ [ [ 37.17794, 48.408195 ], [ 37.1782008, 48.4082175 ], [ 37.1782363, 48.4080359 ], [ 37.1779755, 48.4080134 ], [ 37.17794, 48.408195 ] ] ] } },
{ "type": "Feature", "properties": { "Повна адреса": "Донецька  Білицьке Шухевича Романа 12", "Latitude": 48.408107054668818, "Longitude": 37.178080940199997, "COUNTA з Повна адреса": 1 }, "geometry": { "type": "Polygon", "coordinates": [ [ [ 37.17794, 48.408195 ], [ 37.1782008, 48.4082175 ], [ 37.1782363, 48.4080359 ], [ 37.1779755, 48.4080134 ], [ 37.17794, 48.408195 ] ] ] } },
{ "type": "Feature", "properties": { "Повна адреса": "Донецька  Білицьке Романа Шухевича 27", "Latitude": 48.404616695020017, "Longitude": 37.179404597999998, "COUNTA з Повна адреса": 2 }, "geometry": { "type": "Polygon", "coordinates": [ [ [ 37.1792933, 48.4047486 ], [ 37.1794959, 48.4047699 ], [ 37.1795669, 48.4044718 ], [ 37.1793643, 48.4044505 ], [ 37.1792933, 48.4047486 ] ] ] } },
{ "type": "Feature", "properties": { "Повна адреса": "Донецька  Білицьке Романа Шухевича 25", "Latitude": 48.405111673916615, "Longitude": 37.179327345399997, "COUNTA з Повна адреса": 4 }, "geometry": { "type": "Polygon", "coordinates": [ [ [ 37.1792703, 48.4048512 ], [ 37.1791906, 48.4051744 ], [ 37.1794203, 48.4051994 ], [ 37.1795, 48.4048761 ], [ 37.1792703, 48.4048512 ] ] ] } },
{ "type": "Feature", "properties": { "Повна адреса": "Донецька  Білицьке Романа Шухевича 29", "Latitude": 48.404222749235721, "Longitude": 37.179499145000001, "COUNTA з Повна адреса": 1 }, "geometry": { "type": "Polygon", "coordinates": [ [ [ 37.1793827, 48.4043493 ], [ 37.1796138, 48.4043709 ], [ 37.1796817, 48.4040493 ], [ 37.1794506, 48.4040278 ], [ 37.1793827, 48.4043493 ] ] ] } },
{ "type": "Feature", "properties": { "Повна адреса": "Донецька  Білицьке Шухевича Романа 29", "Latitude": 48.40417547574161, "Longitude": 37.179530660700003, "COUNTA з Повна адреса": 3 }, "geometry": { "type": "Polygon", "coordinates": [ [ [ 37.1793827, 48.4043493 ], [ 37.1796138, 48.4043709 ], [ 37.1796817, 48.4040493 ], [ 37.1794506, 48.4040278 ], [ 37.1793827, 48.4043493 ] ] ] } },
{ "type": "Feature", "properties": { "Повна адреса": "Донецька  Білицьке Харківська 23", "Latitude": 48.402769883565618, "Longitude": 37.1877515921, "COUNTA з Повна адреса": 6 }, "geometry": { "type": "Polygon", "coordinates": [ [ [ 37.1875613, 48.4026955 ], [ 37.1875324, 48.4028179 ], [ 37.1885129, 48.4029199 ], [ 37.1885418, 48.4027975 ], [ 37.1875613, 48.4026955 ] ] ] } },
{ "type": "Feature", "properties": { "Повна адреса": "Донецька  Білицьке Миру 10", "Latitude": 48.4065942, "Longitude": 37.1741214, "COUNTA з Повна адреса": 1 }, "geometry": { "type": "Polygon", "coordinates": [ [ [ 37.1740084, 48.4066312 ], [ 37.1740352, 48.406527 ], [ 37.174314, 48.4065586 ], [ 37.1742872, 48.4066629 ], [ 37.1740084, 48.4066312 ] ] ] } },
{ "type": "Feature", "properties": { "Повна адреса": "Донецька  Білицьке Харківська 21", "Latitude": 48.40390379864975, "Longitude": 37.1876201237, "COUNTA з Повна адреса": 3 }, "geometry": { "type": "Polygon", "coordinates": [ [ [ 37.1874034, 48.403825 ], [ 37.1873768, 48.4039451 ], [ 37.1883633, 48.4040412 ], [ 37.1883898, 48.4039211 ], [ 37.1880335, 48.4038864 ], [ 37.1874034, 48.403825 ] ] ] } },
{ "type": "Feature", "properties": { "Повна адреса": "Донецька  Білицьке Харківська 27", "Latitude": 48.401907122088566, "Longitude": 37.186625893799999, "COUNTA з Повна адреса": 14 }, "geometry": { "type": "Polygon", "coordinates": [ [ [ 37.1865358, 48.4018405 ], [ 37.1865072, 48.401957 ], [ 37.1875055, 48.4020648 ], [ 37.187534, 48.4019483 ], [ 37.1865358, 48.4018405 ] ] ] } },
{ "type": "Feature", "properties": { "Повна адреса": "Донецька  Білицьке Харківська 25", "Latitude": 48.402061588206934, "Longitude": 37.188229684600003, "COUNTA з Повна адреса": 7 }, "geometry": { "type": "Polygon", "coordinates": [ [ [ 37.1880992, 48.4020072 ], [ 37.1880649, 48.4021348 ], [ 37.1890425, 48.4022505 ], [ 37.1890768, 48.4021229 ], [ 37.1880992, 48.4020072 ] ] ] } },
{ "type": "Feature", "properties": { "Повна адреса": "Донецька  Водянське Дружби 4", "Latitude": 48.407303984901809, "Longitude": 37.102954343199997, "COUNTA з Повна адреса": 1 }, "geometry": { "type": "Polygon", "coordinates": [ [ [ 37.1028098, 48.4074048 ], [ 37.1032394, 48.4073271 ], [ 37.1031787, 48.4071791 ], [ 37.1027491, 48.4072568 ], [ 37.1028098, 48.4074048 ] ] ] } },
{ "type": "Feature", "properties": { "Повна адреса": "Донецька  сел. Водянське Дружби 4", "Latitude": 48.407303984901809, "Longitude": 37.102954343199997, "COUNTA з Повна адреса": 1 }, "geometry": { "type": "Polygon", "coordinates": [ [ [ 37.1028098, 48.4074048 ], [ 37.1032394, 48.4073271 ], [ 37.1031787, 48.4071791 ], [ 37.1027491, 48.4072568 ], [ 37.1028098, 48.4074048 ] ] ] } },
{ "type": "Feature", "properties": { "Повна адреса": "Донецька  сел. Водянське Комунальна 11", "Latitude": 48.406545251720381, "Longitude": 37.103834729799999, "COUNTA з Повна адреса": 1 }, "geometry": { "type": "Polygon", "coordinates": [ [ [ 37.10378, 48.4066297 ], [ 37.1043093, 48.4065359 ], [ 37.1042556, 48.4064023 ], [ 37.1037262, 48.4064961 ], [ 37.10378, 48.4066297 ] ] ] } },
{ "type": "Feature", "properties": { "Повна адреса": "Донецька  сел. Водянське Комунальна 8", "Latitude": 48.406242185301899, "Longitude": 37.103875280899999, "COUNTA з Повна адреса": 1 }, "geometry": { "type": "Polygon", "coordinates": [ [ [ 37.1036879, 48.406331 ], [ 37.1041864, 48.4062426 ], [ 37.1041277, 48.4060967 ], [ 37.1036292, 48.406185 ], [ 37.1036879, 48.406331 ] ] ] } },
{ "type": "Feature", "properties": { "Повна адреса": "Донецька  сел. Водянське Комунальна 10", "Latitude": 48.406135471774263, "Longitude": 37.104545441900001, "COUNTA з Повна адреса": 1 }, "geometry": { "type": "Polygon", "coordinates": [ [ [ 37.1044448, 48.4061986 ], [ 37.104991, 48.4061018 ], [ 37.1049358, 48.4059643 ], [ 37.1043895, 48.4060611 ], [ 37.1044448, 48.4061986 ] ] ] } },
{ "type": "Feature", "properties": { "Повна адреса": "Донецька  сел. Водянське Комунальна 13", "Latitude": 48.406403322728622, "Longitude": 37.104632947, "COUNTA з Повна адреса": 2 }, "geometry": { "type": "Polygon", "coordinates": [ [ [ 37.1045062, 48.4064803 ], [ 37.1050569, 48.4063828 ], [ 37.1050074, 48.4062597 ], [ 37.1044567, 48.4063572 ], [ 37.1045062, 48.4064803 ] ] ] } },
{ "type": "Feature", "properties": { "Повна адреса": "Донецька  Добропілля мікрорайон Молодіжний 36", "Latitude": 48.469482770324149, "Longitude": 37.080341337500002, "COUNTA з Повна адреса": 4 }, "geometry": { "type": "Polygon", "coordinates": [ [ [ 37.0791802, 48.4693949 ], [ 37.0805249, 48.4695794 ], [ 37.0805562, 48.4694792 ], [ 37.0792115, 48.4692947 ], [ 37.0791889, 48.4693672 ], [ 37.0791802, 48.4693949 ] ] ] } },
{ "type": "Feature", "properties": { "Повна адреса": "Донецька  Добропілля Лі Олександра 41", "Latitude": 48.454524554115181, "Longitude": 37.079401150899997, "COUNTA з Повна адреса": 6 }, "geometry": { "type": "Polygon", "coordinates": [ [ [ 37.0801177, 48.4545188 ], [ 37.080101, 48.4544137 ], [ 37.0792266, 48.4544748 ], [ 37.0792433, 48.4545799 ], [ 37.0801177, 48.4545188 ] ] ] } },
{ "type": "Feature", "properties": { "Повна адреса": "Донецька  Добропілля Олександра Лі 41", "Latitude": 48.454514864279361, "Longitude": 37.079313942399999, "COUNTA з Повна адреса": 2 }, "geometry": { "type": "Polygon", "coordinates": [ [ [ 37.0801177, 48.4545188 ], [ 37.080101, 48.4544137 ], [ 37.0792266, 48.4544748 ], [ 37.0792433, 48.4545799 ], [ 37.0801177, 48.4545188 ] ] ] } },
{ "type": "Feature", "properties": { "Повна адреса": "Донецька  Добропілля Травнева 123", "Latitude": 48.451031175062262, "Longitude": 37.078066095099999, "COUNTA з Повна адреса": 18 }, "geometry": { "type": "Polygon", "coordinates": [ [ [ 37.0776787, 48.4511288 ], [ 37.0776609, 48.4510266 ], [ 37.0788823, 48.4509331 ], [ 37.0789001, 48.4510353 ], [ 37.0776787, 48.4511288 ] ] ] } },
{ "type": "Feature", "properties": { "Повна адреса": "Донецька  Добропілля Травнева 125", "Latitude": 48.450239962123398, "Longitude": 37.077752056999998, "COUNTA з Повна адреса": 14 }, "geometry": { "type": "Polygon", "coordinates": [ [ [ 37.0775967, 48.4499925 ], [ 37.0774614, 48.450052 ], [ 37.0781457, 48.4507367 ], [ 37.078281, 48.4506772 ], [ 37.0775967, 48.4499925 ] ] ] } },
{ "type": "Feature", "properties": { "Повна адреса": "Донецька  Добропілля Луганського 25", "Latitude": 48.464211654885766, "Longitude": 37.083367532600001, "COUNTA з Повна адреса": 3 }, "geometry": { "type": "Polygon", "coordinates": [ [ [ 37.0835736, 48.4642862 ], [ 37.0835645, 48.4641914 ], [ 37.0826164, 48.4642313 ], [ 37.0826254, 48.4643261 ], [ 37.0835736, 48.4642862 ] ] ] } },
{ "type": "Feature", "properties": { "Повна адреса": "Донецька  Добропілля Залізнича 30", "Latitude": 48.449980909154696, "Longitude": 37.080237654599998, "COUNTA з Повна адреса": 6 }, "geometry": { "type": "Polygon", "coordinates": [ [ [ 37.0808623, 48.4505277 ], [ 37.0807142, 48.4505918 ], [ 37.0800291, 48.4498949 ], [ 37.0801771, 48.4498309 ], [ 37.0808623, 48.4505277 ] ] ] } },
{ "type": "Feature", "properties": { "Повна адреса": "Донецька  Добропілля Залізнична 30", "Latitude": 48.450030321669693, "Longitude": 37.080311024700002, "COUNTA з Повна адреса": 2 }, "geometry": { "type": "Polygon", "coordinates": [ [ [ 37.0808623, 48.4505277 ], [ 37.0807142, 48.4505918 ], [ 37.0800291, 48.4498949 ], [ 37.0801771, 48.4498309 ], [ 37.0808623, 48.4505277 ] ] ] } },
{ "type": "Feature", "properties": { "Повна адреса": "Донецька  Добропілля Луганський 24", "Latitude": 48.465165300776704, "Longitude": 37.082462044700002, "COUNTA з Повна адреса": 5 }, "geometry": { "type": "Polygon", "coordinates": [ [ [ 37.0819048, 48.4651209 ], [ 37.0819391, 48.4650125 ], [ 37.0827787, 48.4651292 ], [ 37.0827445, 48.4652376 ], [ 37.0819048, 48.4651209 ] ] ] } },
{ "type": "Feature", "properties": { "Повна адреса": "Донецька  Добропілля Луганського 24", "Latitude": 48.465142840542619, "Longitude": 37.082462044700002, "COUNTA з Повна адреса": 8 }, "geometry": { "type": "Polygon", "coordinates": [ [ [ 37.0819048, 48.4651209 ], [ 37.0819391, 48.4650125 ], [ 37.0827787, 48.4651292 ], [ 37.0827445, 48.4652376 ], [ 37.0819048, 48.4651209 ] ] ] } },
{ "type": "Feature", "properties": { "Повна адреса": "Донецька  Добропілля Театральна 14", "Latitude": 48.459907257911318, "Longitude": 37.080796487199997, "COUNTA з Повна адреса": 8 }, "geometry": { "type": "Polygon", "coordinates": [ [ [ 37.081448, 48.4599133 ], [ 37.0814259, 48.4597991 ], [ 37.0807265, 48.4598587 ], [ 37.0807487, 48.4599729 ], [ 37.081448, 48.4599133 ] ] ] } },
{ "type": "Feature", "properties": { "Повна адреса": "Донецька  Добропілля Травнева 109", "Latitude": 48.454132584772175, "Longitude": 37.078593570400002, "COUNTA з Повна адреса": 8 }, "geometry": { "type": "Polygon", "coordinates": [ [ [ 37.0791693, 48.4541386 ], [ 37.0791519, 48.4540323 ], [ 37.078276, 48.4540955 ], [ 37.0782935, 48.4542019 ], [ 37.0791693, 48.4541386 ] ] ] } },
{ "type": "Feature", "properties": { "Повна адреса": "Донецька  Добропілля Котляревського 20", "Latitude": 48.453924125899469, "Longitude": 37.081662567199999, "COUNTA з Повна адреса": 1 }, "geometry": { "type": "Polygon", "coordinates": [ [ [ 37.082024, 48.4539494 ], [ 37.0820078, 48.4538391 ], [ 37.08112, 48.4538967 ], [ 37.0811362, 48.4540068 ], [ 37.082024, 48.4539494 ] ] ] } },
{ "type": "Feature", "properties": { "Повна адреса": "Донецька  Добропілля Котляревського Івана 20", "Latitude": 48.453935421602395, "Longitude": 37.081402766099998, "COUNTA з Повна адреса": 5 }, "geometry": { "type": "Polygon", "coordinates": [ [ [ 37.082024, 48.4539494 ], [ 37.0820078, 48.4538391 ], [ 37.08112, 48.4538967 ], [ 37.0811362, 48.4540068 ], [ 37.082024, 48.4539494 ] ] ] } },
{ "type": "Feature", "properties": { "Повна адреса": "Донецька  Добропілля Луганського 29", "Latitude": 48.464595703283365, "Longitude": 37.080960209700002, "COUNTA з Повна адреса": 1 }, "geometry": { "type": "Polygon", "coordinates": [ [ [ 37.0800985, 48.4644764 ], [ 37.0801427, 48.4643777 ], [ 37.0812894, 48.4646036 ], [ 37.0812451, 48.4647023 ], [ 37.0800985, 48.4644764 ] ] ] } },
{ "type": "Feature", "properties": { "Повна адреса": "Донецька  Добропілля Театральна 22", "Latitude": 48.460818102478079, "Longitude": 37.081658882600003, "COUNTA з Повна адреса": 1 }, "geometry": { "type": "Polygon", "coordinates": [ [ [ 37.0820225, 48.4608438 ], [ 37.0820008, 48.4607206 ], [ 37.0812699, 48.4607773 ], [ 37.0812916, 48.4609004 ], [ 37.0820225, 48.4608438 ] ] ] } },
{ "type": "Feature", "properties": { "Повна адреса": "Донецька  Добропілля пр-т Шевченка 1", "Latitude": 48.466272564723383, "Longitude": 37.085389034099997, "COUNTA з Повна адреса": 4 }, "geometry": { "type": "Polygon", "coordinates": [ [ [ 37.0857219, 48.4657371 ], [ 37.0855165, 48.465706 ], [ 37.0853433, 48.4662092 ], [ 37.0852096, 48.466189 ], [ 37.0852151, 48.466173 ], [ 37.0848451, 48.4661171 ], [ 37.0848498, 48.4661034 ], [ 37.0846699, 48.4660762 ], [ 37.0846287, 48.4661961 ], [ 37.0848926, 48.466236 ], [ 37.0848838, 48.4662614 ], [ 37.0852025, 48.4663096 ], [ 37.0851923, 48.4663391 ], [ 37.0854987, 48.4663855 ], [ 37.0857219, 48.4657371 ] ] ] } },
{ "type": "Feature", "properties": { "Повна адреса": "Донецька  Добропілля Котляревського 22", "Latitude": 48.453494889188285, "Longitude": 37.081606088699999, "COUNTA з Повна адреса": 1 }, "geometry": { "type": "Polygon", "coordinates": [ [ [ 37.0810904, 48.4536021 ], [ 37.0810752, 48.453505 ], [ 37.0819357, 48.4534459 ], [ 37.0819509, 48.4535429 ], [ 37.0810904, 48.4536021 ] ] ] } },
{ "type": "Feature", "properties": { "Повна адреса": "Донецька  Добропілля Котляревського Івана 22", "Latitude": 48.453517480594144, "Longitude": 37.081594793000001, "COUNTA з Повна адреса": 4 }, "geometry": { "type": "Polygon", "coordinates": [ [ [ 37.0810904, 48.4536021 ], [ 37.0810752, 48.453505 ], [ 37.0819357, 48.4534459 ], [ 37.0819509, 48.4535429 ], [ 37.0810904, 48.4536021 ] ] ] } },
{ "type": "Feature", "properties": { "Повна адреса": "Донецька  Добропілля проспект Перемоги 4", "Latitude": 48.46106927716167, "Longitude": 37.086200597199998, "COUNTA з Повна адреса": 2 }, "geometry": { "type": "Polygon", "coordinates": [ [ [ 37.0863613, 48.4612703 ], [ 37.0861759, 48.4612861 ], [ 37.0861183, 48.4609881 ], [ 37.0863037, 48.4609723 ], [ 37.0863613, 48.4612703 ] ] ] } },
{ "type": "Feature", "properties": { "Повна адреса": "Донецька  Добропілля Квіткова 10", "Latitude": 48.453235088021003, "Longitude": 37.086971547600001, "COUNTA з Повна адреса": 1 }, "geometry": { "type": "Polygon", "coordinates": [ [ [ 37.0868754, 48.453051 ], [ 37.0870025, 48.4530404 ], [ 37.0870658, 48.4533739 ], [ 37.0869386, 48.4533845 ], [ 37.0868754, 48.453051 ] ] ] } },
{ "type": "Feature", "properties": { "Повна адреса": "Донецька  Добропілля проспект Шевченка 11", "Latitude": 48.465744954359273, "Longitude": 37.081831328, "COUNTA з Повна адреса": 3 }, "geometry": { "type": "Polygon", "coordinates": [ [ [ 37.0818889, 48.4658663 ], [ 37.081759, 48.4658468 ], [ 37.0819564, 48.4652712 ], [ 37.0820862, 48.4652907 ], [ 37.0818889, 48.4658663 ] ] ] } },
{ "type": "Feature", "properties": { "Повна адреса": "Донецька  Добропілля мікрорайон Молодіжний 22", "Latitude": 48.470053553993829, "Longitude": 37.082643731700003, "COUNTA з Повна адреса": 14 }, "geometry": { "type": "Polygon", "coordinates": [ [ [ 37.0825806, 48.4700804 ], [ 37.0826104, 48.4699881 ], [ 37.0838876, 48.4701694 ], [ 37.0838578, 48.4702617 ], [ 37.0825806, 48.4700804 ] ] ] } },
{ "type": "Feature", "properties": { "Повна адреса": "Донецька  Добропілля Лі Олександра 18", "Latitude": 48.455764853099701, "Longitude": 37.087075500799997, "COUNTA з Повна адреса": 2 }, "geometry": { "type": "Polygon", "coordinates": [ [ [ 37.0869831, 48.4556057 ], [ 37.0871635, 48.4555935 ], [ 37.0872366, 48.4560694 ], [ 37.0870561, 48.4560816 ], [ 37.0869831, 48.4556057 ] ] ] } },
{ "type": "Feature", "properties": { "Повна адреса": "Донецька  Добропілля Олександра Лі 18", "Latitude": 48.455997409159302, "Longitude": 37.087085190700002, "COUNTA з Повна адреса": 1 }, "geometry": { "type": "Polygon", "coordinates": [ [ [ 37.0869831, 48.4556057 ], [ 37.0871635, 48.4555935 ], [ 37.0872366, 48.4560694 ], [ 37.0870561, 48.4560816 ], [ 37.0869831, 48.4556057 ] ] ] } },
{ "type": "Feature", "properties": { "Повна адреса": "Донецька  Добропілля Луганського 21", "Latitude": 48.464557257918273, "Longitude": 37.083899939200002, "COUNTA з Повна адреса": 4 }, "geometry": { "type": "Polygon", "coordinates": [ [ [ 37.0838965, 48.4648985 ], [ 37.0837337, 48.4648764 ], [ 37.0839132, 48.464296 ], [ 37.084076, 48.4643181 ], [ 37.0838965, 48.4648985 ] ] ] } },
{ "type": "Feature", "properties": { "Повна адреса": "Донецька  Добропілля мікрорайон Молодіжний 21", "Latitude": 48.469424991608939, "Longitude": 37.081624725300003, "COUNTA з Повна адреса": 12 }, "geometry": { "type": "Polygon", "coordinates": [ [ [ 37.0823398, 48.470059 ], [ 37.0822063, 48.4701147 ], [ 37.081508, 48.4693788 ], [ 37.0816414, 48.4693231 ], [ 37.0823398, 48.470059 ] ] ] } },
{ "type": "Feature", "properties": { "Повна адреса": "Донецька  Добропілля Нова 15", "Latitude": 48.450113219264573, "Longitude": 37.0812059358, "COUNTA з Повна адреса": 1 }, "geometry": { "type": "Polygon", "coordinates": [ [ [ 37.0811357, 48.4501279 ], [ 37.0812633, 48.4501189 ], [ 37.0812481, 48.4500223 ], [ 37.0811196, 48.4500316 ], [ 37.0811357, 48.4501279 ] ] ] } },
{ "type": "Feature", "properties": { "Повна адреса": "Донецька  Добропілля Банкова 24", "Latitude": 48.458923739575944, "Longitude": 37.0826956951, "COUNTA з Повна адреса": 5 }, "geometry": { "type": "Polygon", "coordinates": [ [ [ 37.0826551, 48.4590057 ], [ 37.0826302, 48.4588699 ], [ 37.0831013, 48.458832 ], [ 37.0831257, 48.458965 ], [ 37.0830502, 48.4589711 ], [ 37.0830439, 48.4589366 ], [ 37.082721, 48.4589625 ], [ 37.0827278, 48.4589998 ], [ 37.0826551, 48.4590057 ] ] ] } },
{ "type": "Feature", "properties": { "Повна адреса": "Донецька  Добропілля Луганського 22", "Latitude": 48.463786854759157, "Longitude": 37.084359421199999, "COUNTA з Повна адреса": 3 }, "geometry": { "type": "Polygon", "coordinates": [ [ [ 37.0835511, 48.4638911 ], [ 37.0835416, 48.4637571 ], [ 37.0848227, 48.4637169 ], [ 37.0848323, 48.4638509 ], [ 37.0835511, 48.4638911 ] ] ] } },
{ "type": "Feature", "properties": { "Повна адреса": "Донецька  Добропілля Залізнича 36", "Latitude": 48.450034813716485, "Longitude": 37.078930469, "COUNTA з Повна адреса": 6 }, "geometry": { "type": "Polygon", "coordinates": [ [ [ 37.0795331, 48.450562 ], [ 37.0794019, 48.4506201 ], [ 37.0787167, 48.449939 ], [ 37.0788478, 48.449881 ], [ 37.0795331, 48.450562 ] ] ] } },
{ "type": "Feature", "properties": { "Повна адреса": "Донецька  Добропілля Залізнична 36", "Latitude": 48.449980909154696, "Longitude": 37.078849612100001, "COUNTA з Повна адреса": 7 }, "geometry": { "type": "Polygon", "coordinates": [ [ [ 37.0795331, 48.450562 ], [ 37.0794019, 48.4506201 ], [ 37.0787167, 48.449939 ], [ 37.0788478, 48.449881 ], [ 37.0795331, 48.450562 ] ] ] } },
{ "type": "Feature", "properties": { "Повна адреса": "Добропілля, вул. мікрорайон Молодіжний, 15", "Latitude": 48.46888435, "Longitude": 37.08409778, "COUNTA з Повна адреса": null }, "geometry": { "type": "Polygon", "coordinates": [ [ [ 37.0845362, 48.468995 ], [ 37.0845665, 48.4688963 ], [ 37.0842371, 48.4688518 ], [ 37.0833705, 48.4687347 ], [ 37.0833402, 48.4688333 ], [ 37.0845362, 48.468995 ] ] ] } },
{ "type": "Feature", "properties": { "Повна адреса": "Донецька  Добропілля м-н Сонячний 20", "Latitude": 48.469704759151426, "Longitude": 37.087154556000002, "COUNTA з Повна адреса": 6 }, "geometry": { "type": "Polygon", "coordinates": [ [ [ 37.0874097, 48.4697881 ], [ 37.0874377, 48.4696903 ], [ 37.0865032, 48.4695726 ], [ 37.0864752, 48.4696704 ], [ 37.0874097, 48.4697881 ] ] ] } },
{ "type": "Feature", "properties": { "Повна адреса": "Донецька  Добропілля мікрорайон Сонячний 20", "Latitude": 48.469684281973599, "Longitude": 37.0871647946, "COUNTA з Повна адреса": 4 }, "geometry": { "type": "Polygon", "coordinates": [ [ [ 37.0874097, 48.4697881 ], [ 37.0874377, 48.4696903 ], [ 37.0865032, 48.4695726 ], [ 37.0864752, 48.4696704 ], [ 37.0874097, 48.4697881 ] ] ] } },
{ "type": "Feature", "properties": { "Повна адреса": "Донецька  Добропілля Івана Франка 35", "Latitude": 48.4571943, "Longitude": 37.0798206, "COUNTA з Повна адреса": 1 }, "geometry": { "type": "Polygon", "coordinates": [ [ [ 37.0801505, 48.4572473 ], [ 37.080132, 48.4571454 ], [ 37.0794453, 48.4572002 ], [ 37.0794638, 48.4573021 ], [ 37.0801505, 48.4572473 ] ] ] } },
{ "type": "Feature", "properties": { "Повна адреса": "Донецька  Добропілля мікрорайон Молодіжний 15", "Latitude": 48.469039800175487, "Longitude": 37.081918871500001, "COUNTA з Повна адреса": 9 }, "geometry": { "type": "Polygon", "coordinates": [ [ [ 37.0825078, 48.4695362 ], [ 37.0823733, 48.4695935 ], [ 37.0817449, 48.4689456 ], [ 37.0818794, 48.4688882 ], [ 37.0825078, 48.4695362 ] ] ] } },
{ "type": "Feature", "properties": { "Повна адреса": "Донецька  Добропілля мікрорайон Молодіжний 18", "Latitude": 48.468969765369366, "Longitude": 37.081883854099999, "COUNTA з Повна адреса": 12 }, "geometry": { "type": "Polygon", "coordinates": [ [ [ 37.0825078, 48.4695362 ], [ 37.0823733, 48.4695935 ], [ 37.0817449, 48.4689456 ], [ 37.0818794, 48.4688882 ], [ 37.0825078, 48.4695362 ] ] ] } },
{ "type": "Feature", "properties": { "Повна адреса": "Донецька  Добропілля Лі Олександра 35", "Latitude": 48.454311377727215, "Longitude": 37.08122284, "COUNTA з Повна адреса": 9 }, "geometry": { "type": "Polygon", "coordinates": [ [ [ 37.0820728, 48.4543215 ], [ 37.082059, 48.454216 ], [ 37.0811764, 48.4542666 ], [ 37.0811848, 48.4543311 ], [ 37.0811902, 48.4543721 ], [ 37.0820728, 48.4543215 ] ] ] } },
{ "type": "Feature", "properties": { "Повна адреса": "Донецька  Добропілля Олександра Лі 35", "Latitude": 48.454311377727215, "Longitude": 37.0819011285, "COUNTA з Повна адреса": 2 }, "geometry": { "type": "Polygon", "coordinates": [ [ [ 37.0820728, 48.4543215 ], [ 37.082059, 48.454216 ], [ 37.0811764, 48.4542666 ], [ 37.0811848, 48.4543311 ], [ 37.0811902, 48.4543721 ], [ 37.0820728, 48.4543215 ] ] ] } },
{ "type": "Feature", "properties": { "Повна адреса": "Донецька  Добропілля Незалежності 17", "Latitude": 48.460532316761402, "Longitude": 37.091363565999998, "COUNTA з Повна адреса": 4 }, "geometry": { "type": "Polygon", "coordinates": [ [ [ 37.091541, 48.4605843 ], [ 37.091539, 48.4605749 ], [ 37.0915159, 48.4604623 ], [ 37.0912024, 48.4604906 ], [ 37.0912258, 48.4606048 ], [ 37.0912274, 48.4606126 ], [ 37.091541, 48.4605843 ] ] ] } }
]
}
